{"type": "FeatureCollection", "features": [{"type": "Feature", "properties": {"norad_id": 28054, "name": "DMSP 5D-3 F16 (USA 172)", "group": "weather", "lat": -29.999097486782166, "lon": -0.1622548330517867, "alt_km": 845.4824929774331, "timestamp": "2025-12-03T04:52:29.283635+00:00", "meta": {"OBJECT_NAME": "DMSP 5D-3 F16 (USA 172)", "OBJECT_ID": "2003-048A", "EPOCH": "2025-12-02T19:38:50.160768", "MEAN_MOTION": 14.14418432, "ECCENTRICITY": 0.0006913, "INCLINATION": 99.0053, "RA_OF_ASC_NODE": 354.1973, "ARG_OF_PERICENTER": 351.0213, "MEAN_ANOMALY": 182.0475, "EPHEMERIS_TYPE": 0, "CLASSIFICATION_TYPE": "U", "NORAD_CAT_ID": 28054, "ELEMENT_SET_NO": 999, "REV_AT_EPOCH": 14172, "BSTAR": 0.00012691, "MEAN_MOTION_DOT": 1.97e-06, "MEAN_MOTION_DDOT": 0}, "tle": {"line1": "1 28054U 03048A   25336.81863612  .00000197  00000+0  12691-3 0  9996", "line2": "2 28054  99.0053 354.1973 0006913 351.0213 182.0475 14.14418432141727"}}, "geometry": {"type": "Point", "coordinates": [-0.1622548330517867, -29.999097486782166]}}, {"type": "Feature", "properties": {"norad_id": 28912, "name": "METEOSAT-9 (MSG-2)", "group": "weather", "lat": 6.2883638134113005, "lon": -168.6811146476227, "alt_km": 35774.53714181328, "timestamp": "2025-12-03T04:52:29.283690+00:00", "meta": {"OBJECT_NAME": "METEOSAT-9 (MSG-2)", "OBJECT_ID": "2005-049B", "EPOCH": "2025-12-01T20:52:41.183904", "MEAN_MOTION": 1.0027085, "ECCENTRICITY": 0.00039633, "INCLINATION": 8.9132, "RA_OF_ASC_NODE": 56.0736, "ARG_OF_PERICENTER": 184.5981, "MEAN_ANOMALY": 189.0848, "EPHEMERIS_TYPE": 0, "CLASSIFICATION_TYPE": "U", "NORAD_CAT_ID": 28912, "ELEMENT_SET_NO": 999, "REV_AT_EPOCH": 502, "BSTAR": 0, "MEAN_MOTION_DOT": 1.42e-06, "MEAN_MOTION_DDOT": 0}, "tle": {"line1": "1 28912U 05049B   25335.86992111  .00000142  00000+0  00000+0 0  9990", "line2": "2 28912   8.9132  56.0736 0003963 184.5981 189.0848  1.00270850  5029"}}, "geometry": {"type": "Point", "coordinates": [-168.6811146476227, 6.2883638134113005]}}, {"type": "Feature", "properties": {"norad_id": 29522, "name": "DMSP 5D-3 F17 (USA 191)", "group": "weather", "lat": -71.28106551326138, "lon": 135.7929133453582, "alt_km": 843.2674171812087, "timestamp": "2025-12-03T04:52:29.283708+00:00", "meta": {"OBJECT_NAME": "DMSP 5D-3 F17 (USA 191)", "OBJECT_ID": "2006-050A", "EPOCH": "2025-12-02T20:53:30.546816", "MEAN_MOTION": 14.14912601, "ECCENTRICITY": 0.0009149, "INCLINATION": 98.7394, "RA_OF_ASC_NODE": 342.465, "ARG_OF_PERICENTER": 255.7515, "MEAN_ANOMALY": 104.2643, "EPHEMERIS_TYPE": 0, "CLASSIFICATION_TYPE": "U", "NORAD_CAT_ID": 29522, "ELEMENT_SET_NO": 999, "REV_AT_EPOCH": 98465, "BSTAR": 0.00014864, "MEAN_MOTION_DOT": 2.44e-06, "MEAN_MOTION_DDOT": 0}, "tle": {"line1": "1 29522U 06050A   25336.87049244  .00000244  00000+0  14864-3 0  9993", "line2": "2 29522  98.7394 342.4650 0009149 255.7515 104.2643 14.14912601984650"}}, "geometry": {"type": "Point", "coordinates": [135.7929133453582, -71.28106551326138]}}, {"type": "Feature", "properties": {"norad_id": 32958, "name": "FENGYUN 3A", "group": "weather", "lat": 9.939440162100997, "lon": 98.46318278485411, "alt_km": 834.4929806137725, "timestamp": "2025-12-03T04:52:29.283723+00:00", "meta": {"OBJECT_NAME": "FENGYUN 3A", "OBJECT_ID": "2008-026A", "EPOCH": "2025-12-02T19:37:07.248000", "MEAN_MOTION": 14.19509322, "ECCENTRICITY": 0.0008381, "INCLINATION": 98.6683, "RA_OF_ASC_NODE": 276.5539, "ARG_OF_PERICENTER": 340.9406, "MEAN_ANOMALY": 19.1455, "EPHEMERIS_TYPE": 0, "CLASSIFICATION_TYPE": "U", "NORAD_CAT_ID": 32958, "ELEMENT_SET_NO": 999, "REV_AT_EPOCH": 90754, "BSTAR": 9.6459e-05, "MEAN_MOTION_DOT": 1.6e-06, "MEAN_MOTION_DDOT": 0}, "tle": {"line1": "1 32958U 08026A   25336.81744500  .00000160  00000+0  96459-4 0  9994", "line2": "2 32958  98.6683 276.5539 0008381 340.9406  19.1455 14.19509322907548"}}, "geometry": {"type": "Point", "coordinates": [98.46318278485411, 9.939440162100997]}}, {"type": "Feature", "properties": {"norad_id": 35491, "name": "GOES 14", "group": "weather", "lat": -0.8516064374716936, "lon": 37.07572576300161, "alt_km": 35802.62706263112, "timestamp": "2025-12-03T04:52:29.283737+00:00", "meta": {"OBJECT_NAME": "GOES 14", "OBJECT_ID": "2009-033A", "EPOCH": "2025-12-02T14:58:53.520384", "MEAN_MOTION": 1.00272644, "ECCENTRICITY": 0.0004147, "INCLINATION": 1.1708, "RA_OF_ASC_NODE": 85.5255, "ARG_OF_PERICENTER": 149.7317, "MEAN_ANOMALY": 312.8509, "EPHEMERIS_TYPE": 0, "CLASSIFICATION_TYPE": "U", "NORAD_CAT_ID": 35491, "ELEMENT_SET_NO": 999, "REV_AT_EPOCH": 462, "BSTAR": 0, "MEAN_MOTION_DOT": -4.8e-07, "MEAN_MOTION_DDOT": 0}, "tle": {"line1": "1 35491U 09033A   25336.62423056 -.00000048  00000+0  00000+0 0  9995", "line2": "2 35491   1.1708  85.5255 0004147 149.7317 312.8509  1.00272644  4625"}}, "geometry": {"type": "Point", "coordinates": [37.07572576300161, -0.8516064374716936]}}, {"type": "Feature", "properties": {"norad_id": 35951, "name": "DMSP 5D-3 F18 (USA 210)", "group": "weather", "lat": 53.08366354160671, "lon": 145.66623236367673, "alt_km": 831.2526939843883, "timestamp": "2025-12-03T04:52:29.283750+00:00", "meta": {"OBJECT_NAME": "DMSP 5D-3 F18 (USA 210)", "OBJECT_ID": "2009-057A", "EPOCH": "2025-12-02T19:47:45.604032", "MEAN_MOTION": 14.14759881, "ECCENTRICITY": 0.0012108, "INCLINATION": 98.8823, "RA_OF_ASC_NODE": 313.2758, "ARG_OF_PERICENTER": 88.5083, "MEAN_ANOMALY": 271.7476, "EPHEMERIS_TYPE": 0, "CLASSIFICATION_TYPE": "U", "NORAD_CAT_ID": 35951, "ELEMENT_SET_NO": 999, "REV_AT_EPOCH": 83182, "BSTAR": 0.00020206, "MEAN_MOTION_DOT": 3.45e-06, "MEAN_MOTION_DDOT": 0}, "tle": {"line1": "1 35951U 09057A   25336.82483338  .00000345  00000+0  20206-3 0  9996", "line2": "2 35951  98.8823 313.2758 0012108  88.5083 271.7476 14.14759881831820"}}, "geometry": {"type": "Point", "coordinates": [145.66623236367673, 53.08366354160671]}}, {"type": "Feature", "properties": {"norad_id": 36411, "name": "EWS-G2 (GOES 15)", "group": "weather", "lat": 0.6524746903689095, "lon": -153.15224523413525, "alt_km": 35770.4899129708, "timestamp": "2025-12-03T04:52:29.283764+00:00", "meta": {"OBJECT_NAME": "EWS-G2 (GOES 15)", "OBJECT_ID": "2010-008A", "EPOCH": "2025-12-02T20:14:09.214080", "MEAN_MOTION": 1.00267606, "ECCENTRICITY": 0.0005944, "INCLINATION": 0.7873, "RA_OF_ASC_NODE": 86.0568, "ARG_OF_PERICENTER": 169.4863, "MEAN_ANOMALY": 181.4455, "EPHEMERIS_TYPE": 0, "CLASSIFICATION_TYPE": "U", "NORAD_CAT_ID": 36411, "ELEMENT_SET_NO": 999, "REV_AT_EPOCH": 5766, "BSTAR": 0, "MEAN_MOTION_DOT": 5.7e-07, "MEAN_MOTION_DDOT": 0}, "tle": {"line1": "1 36411U 10008A   25336.84316220  .00000057  00000+0  00000+0 0  9999", "line2": "2 36411   0.7873  86.0568 0005944 169.4863 181.4455  1.00267606 57664"}}, "geometry": {"type": "Point", "coordinates": [-153.15224523413525, 0.6524746903689095]}}, {"type": "Feature", "properties": {"norad_id": 36744, "name": "COMS 1", "group": "weather", "lat": -1.170825260137834, "lon": -86.46995420662715, "alt_km": 35782.30924025433, "timestamp": "2025-12-03T04:52:29.283777+00:00", "meta": {"OBJECT_NAME": "COMS 1", "OBJECT_ID": "2010-032A", "EPOCH": "2025-12-02T15:57:07.381728", "MEAN_MOTION": 1.00270136, "ECCENTRICITY": 0.00010793, "INCLINATION": 4.3152, "RA_OF_ASC_NODE": 78.1083, "ARG_OF_PERICENTER": 183.7473, "MEAN_ANOMALY": 177.3637, "EPHEMERIS_TYPE": 0, "CLASSIFICATION_TYPE": "U", "NORAD_CAT_ID": 36744, "ELEMENT_SET_NO": 999, "REV_AT_EPOCH": 4912, "BSTAR": 0, "MEAN_MOTION_DOT": -3.25e-06, "MEAN_MOTION_DDOT": 0}, "tle": {"line1": "1 36744U 10032A   25336.66466877 -.00000325  00000+0  00000+0 0  9998", "line2": "2 36744   4.3152  78.1083 0001079 183.7473 177.3637  1.00270136 49128"}}, "geometry": {"type": "Point", "coordinates": [-86.46995420662715, -1.170825260137834]}}, {"type": "Feature", "properties": {"norad_id": 37214, "name": "FENGYUN 3B", "group": "weather", "lat": 80.99867991725961, "lon": -71.27277891572392, "alt_km": 828.7241274959842, "timestamp": "2025-12-03T04:52:29.283790+00:00", "meta": {"OBJECT_NAME": "FENGYUN 3B", "OBJECT_ID": "2010-059A", "EPOCH": "2025-12-02T20:46:58.079136", "MEAN_MOTION": 14.14785246, "ECCENTRICITY": 0.0022467, "INCLINATION": 98.9922, "RA_OF_ASC_NODE": 16.7737, "ARG_OF_PERICENTER": 25.5822, "MEAN_ANOMALY": 147.6205, "EPHEMERIS_TYPE": 0, "CLASSIFICATION_TYPE": "U", "NORAD_CAT_ID": 37214, "ELEMENT_SET_NO": 999, "REV_AT_EPOCH": 77966, "BSTAR": 9.1269e-05, "MEAN_MOTION_DOT": 1.31e-06, "MEAN_MOTION_DDOT": 0}, "tle": {"line1": "1 37214U 10059A   25336.86594999  .00000131  00000+0  91269-4 0  9995", "line2": "2 37214  98.9922  16.7737 0022467  25.5822 147.6205 14.14785246779666"}}, "geometry": {"type": "Point", "coordinates": [-71.27277891572392, 80.99867991725961]}}, {"type": "Feature", "properties": {"norad_id": 37849, "name": "SUOMI NPP", "group": "weather", "lat": 50.60073854801882, "lon": 105.47099687370492, "alt_km": 820.9853926669066, "timestamp": "2025-12-03T04:52:29.283801+00:00", "meta": {"OBJECT_NAME": "SUOMI NPP", "OBJECT_ID": "2011-061A", "EPOCH": "2025-12-02T19:48:47.551104", "MEAN_MOTION": 14.19509572, "ECCENTRICITY": 0.0001872, "INCLINATION": 98.7758, "RA_OF_ASC_NODE": 274.2571, "ARG_OF_PERICENTER": 137.9244, "MEAN_ANOMALY": 222.2076, "EPHEMERIS_TYPE": 0, "CLASSIFICATION_TYPE": "U", "NORAD_CAT_ID": 37849, "ELEMENT_SET_NO": 999, "REV_AT_EPOCH": 73058, "BSTAR": 8.386e-05, "MEAN_MOTION_DOT": 1.33e-06, "MEAN_MOTION_DDOT": 0}, "tle": {"line1": "1 37849U 11061A   25336.82555036  .00000133  00000+0  83860-4 0  9998", "line2": "2 37849  98.7758 274.2571 0001872 137.9244 222.2076 14.19509572730580"}}, "geometry": {"type": "Point", "coordinates": [105.47099687370492, 50.60073854801882]}}]}